$$SOE
2460154.500000000, A.D. 2023-Jul-29 00:00:00.0000, -4.261999624026346E+08, 1.387170617767842E+08, -2.747568635296273E+07,
2460161.500000000, A.D. 2023-Aug-05 00:00:00.0000, -4.287339262150316E+08, 1.293863223715959E+08, -2.668159823864397E+07,
2460168.500000000, A.D. 2023-Aug-12 00:00:00.0000, -4.310374404857191E+08, 1.199860055693316E+08, -2.587316306490536E+07,
2460175.500000000, A.D. 2023-Aug-19 00:00:00.0000, -4.331085658741398E+08, 1.105209677058541E+08, -2.505077318330332E+07,
2460182.500000000, A.D. 2023-Aug-26 00:00:00.0000, -4.349454287537435E+08, 1.009961170824450E+08, -2.421482813761876E+07,
2460189.500000000, A.D. 2023-Sep-02 00:00:00.0000, -4.365462223245776E+08, 9.141641498734355E+07, -2.336573479383170E+07,
2460196.500000000, A.D. 2023-Sep-09 00:00:00.0000, -4.379092078268085E+08, 8.178687661347653E+07, -2.250390748608398E+07,
2460203.500000000, A.D. 2023-Sep-16 00:00:00.0000, -4.390327156896506E+08, 7.211257181069654E+07, -2.162976819849829E+07,
2460210.500000000, A.D. 2023-Sep-23 00:00:00.0000, -4.399151462020977E+08, 6.239862595544419E+07, -2.074374679723319E+07,
2460217.500000000, A.D. 2023-Sep-30 00:00:00.0000, -4.405549700476888E+08, 5.265022212416404E+07, -1.984628118388500E+07,
2460224.500000000, A.D. 2023-Oct-07 00:00:00.0000, -4.409507310607147E+08, 4.287260402257331E+07, -1.893781719839927E+07,
2460231.500000000, A.D. 2023-Oct-14 00:00:00.0000, -4.411010501693324E+08, 3.307107635324000E+07, -1.801880863747215E+07,
2460238.500000000, A.D. 2023-Oct-21 00:00:00.0000, -4.410046273004248E+08, 2.325100422091932E+07, -1.708971755296924E+07,
2460245.500000000, A.D. 2023-Oct-28 00:00:00.0000, -4.406602426714507E+08, 1.341781383064250E+07, -1.615101451397113E+07,
2460252.500000000, A.D. 2023-Nov-04 00:00:00.0000, -4.400667587222565E+08, 3.576993701075850E+06, -1.520317878010611E+07,
2460259.500000000, A.D. 2023-Nov-11 00:00:00.0000, -4.392231225142663E+08, -6.265904213211174E+06, -1.424669845107483E+07,
2460266.500000000, A.D. 2023-Nov-18 00:00:00.0000, -4.381283683821011E+08, -1.610526356081203E+07, -1.328207061715753E+07,
2460273.500000000, A.D. 2023-Nov-25 00:00:00.0000, -4.367816207685944E+08, -2.593540277779715E+07, -1.230980151479487E+07,
2460280.500000000, A.D. 2023-Dec-02 00:00:00.0000, -4.351820972187719E+08, -3.575057443570948E+07, -1.133040669000813E+07,
2460287.500000000, A.D. 2023-Dec-09 00:00:00.0000, -4.333291114589655E+08, -4.554496481988893E+07, -1.034441118093299E+07,
2460294.500000000, A.D. 2023-Dec-16 00:00:00.0000, -4.312220762776321E+08, -5.531269373348929E+07, -9.352349744156931E+06,
2460301.500000000, A.D. 2023-Dec-23 00:00:00.0000, -4.288605058630630E+08, -6.504781384763667E+07, -8.354767099937599E+06,
2460308.500000000, A.D. 2023-Dec-30 00:00:00.0000, -4.262440189406940E+08, -7.474430855663651E+07, -7.352217986850742E+06,
2460315.500000000, A.D. 2024-Jan-06 00:00:00.0000, -4.233723444846346E+08, -8.439609070817344E+07, -6.345267055486083E+06,
2460322.500000000, A.D. 2024-Jan-13 00:00:00.0000, -4.202453268331364E+08, -9.399700402518801E+07, -5.334489039103065E+06,
2460329.500000000, A.D. 2024-Jan-20 00:00:00.0000, -4.168629289846328E+08, -1.035408241449864E+08, -4.320469060344368E+06,
2460336.500000000, A.D. 2024-Jan-27 00:00:00.0000, -4.132252361018702E+08, -1.130212586363436E+08, -3.303802833688162E+06,
2460343.500000000, A.D. 2024-Feb-03 00:00:00.0000, -4.093324596543662E+08, -1.224319469589385E+08, -2.285096801405966E+06,
2460350.500000000, A.D. 2024-Feb-10 00:00:00.0000, -4.051849419269145E+08, -1.317664606715981E+08, -1.264968251841761E+06,
2460357.500000000, A.D. 2024-Feb-17 00:00:00.0000, -4.007831607602308E+08, -1.410183038951473E+08, -2.440454312377572E+05,
2460364.500000000, A.D. 2024-Feb-24 00:00:00.0000, -3.961277344901965E+08, -1.501809140284185E+08, 7.770323500846326E+05,
2460371.500000000, A.D. 2024-Mar-02 00:00:00.0000, -3.912194270565759E+08, -1.592476627642532E+08, 1.797614613364123E+06,
2460378.500000000, A.D. 2024-Mar-09 00:00:00.0000, -3.860591531413244E+08, -1.682118574840077E+08, 2.817039592634857E+06,
2460385.500000000, A.D. 2024-Mar-16 00:00:00.0000, -3.806479829392630E+08, -1.770667428500770E+08, 3.834634083171219E+06,
2460392.500000000, A.D. 2024-Mar-23 00:00:00.0000, -3.749871466616882E+08, -1.858055015049335E+08, 4.849713359122060E+06,
2460399.500000000, A.D. 2024-Mar-30 00:00:00.0000, -3.690780410097548E+08, -1.944212539221157E+08, 5.861581365581512E+06,
2460406.500000000, A.D. 2024-Apr-06 00:00:00.0000, -3.629222373575234E+08, -2.029070607972688E+08, 6.869530888269663E+06,
2460413.500000000, A.D. 2024-Apr-13 00:00:00.0000, -3.565214880900568E+08, -2.112559271634488E+08, 7.872843445597276E+06,
2460420.500000000, A.D. 2024-Apr-20 00:00:00.0000, -3.498777320422043E+08, -2.194608055730382E+08, 8.870789211671829E+06,
2460427.500000000, A.D. 2024-Apr-27 00:00:00.0000, -3.429931005442274E+08, -2.275145989270542E+08, 9.862627065972656E+06,
2460434.500000000, A.D. 2024-May-04 00:00:00.0000, -3.358699239732870E+08, -2.354101636772202E+08, 1.084760470643210E+07,
2460441.500000000, A.D. 2024-May-11 00:00:00.0000, -3.285107385591213E+08, -2.431403135269786E+08, 1.182495879809378E+07,
2460448.500000000, A.D. 2024-May-18 00:00:00.0000, -3.209182933483202E+08, -2.506978236351140E+08, 1.279391515427481E+07,
2460455.500000000, A.D. 2024-May-25 00:00:00.0000, -3.130955572875403E+08, -2.580754353545236E+08, 1.375368895040038E+07,
2460462.500000000, A.D. 2024-Jun-01 00:00:00.0000, -3.050457263489659E+08, -2.652658615890207E+08, 1.470348496357735E+07,
2460469.500000000, A.D. 2024-Jun-08 00:00:00.0000, -2.967722304326482E+08, -2.722617928164780E+08, 1.564249781685533E+07,
2460476.500000000, A.D. 2024-Jun-15 00:00:00.0000, -2.882787396245571E+08, -2.790559032580699E+08, 1.656991223962373E+07,
2460483.500000000, A.D. 2024-Jun-22 00:00:00.0000, -2.795691707903630E+08, -2.856408560424350E+08, 1.748490353594464E+07,
2460490.500000000, A.D. 2024-Jun-29 00:00:00.0000, -2.706476965973088E+08, -2.920093092095139E+08, 1.838663831004794E+07,
2460497.500000000, A.D. 2024-Jul-06 00:00:00.0000, -2.615187542877099E+08, -2.981539250506672E+08, 1.927427500789654E+07,
2460504.500000000, A.D. 2024-Jul-13 00:00:00.0000, -2.521870522217928E+08, -3.040673799860228E+08, 2.014696433057696E+07,
2460511.500000000, A.D. 2024-Jul-20 00:00:00.0000, -2.426575761384907E+08, -3.097423738525280E+08, 2.100384979930149E+07,
2460518.500000000, A.D. 2024-Jul-27 00:00:00.0000, -2.329355957481665E+08, -3.151716395821248E+08, 2.184406845725082E+07,
2460525.500000000, A.D. 2024-Aug-03 00:00:00.0000, -2.230266713378168E+08, -3.203479536640071E+08, 2.266675165568176E+07,
2460532.500000000, A.D. 2024-Aug-10 00:00:00.0000, -2.129366601730240E+08, -3.252641474140289E+08, 2.347102591166833E+07,
2460539.500000000, A.D. 2024-Aug-17 00:00:00.0000, -2.026717225968798E+08, -3.299131190468639E+08, 2.425601383796142E+07,
2460546.500000000, A.D. 2024-Aug-24 00:00:00.0000, -1.922383277428705E+08, -3.342878465875703E+08, 2.502083514375117E+07,
2460553.500000000, A.D. 2024-Aug-31 00:00:00.0000, -1.816432586875694E+08, -3.383814016946145E+08, 2.576460769378737E+07,
2460560.500000000, A.D. 2024-Sep-07 00:00:00.0000, -1.708936166157770E+08, -3.421869642741048E+08, 2.648644860556407E+07,
2460567.500000000, A.D. 2024-Sep-14 00:00:00.0000, -1.599968238477472E+08, -3.456978368894851E+08, 2.718547546069922E+07,
2460574.500000000, A.D. 2024-Sep-21 00:00:00.0000, -1.489606276876286E+08, -3.489074585462043E+08, 2.786080785205156E+07,
2460581.500000000, A.D. 2024-Sep-28 00:00:00.0000, -1.377931055045526E+08, -3.518094210642644E+08, 2.851156904807174E+07,
2460588.500000000, A.D. 2024-Oct-05 00:00:00.0000, -1.265026672956838E+08, -3.543974880196690E+08, 2.913688743786894E+07,
2460595.500000000, A.D. 2024-Oct-12 00:00:00.0000, -1.150980560089441E+08, -3.566656132550553E+08, 2.973589803361166E+07,
2460602.500000000, A.D. 2024-Oct-19 00:00:00.0000, -1.035883472934598E+08, -3.586079592058930E+08, 3.030774416888599E+07,
2460609.500000000, A.D. 2024-Oct-26 00:00:00.0000, -9.198294862867083E+07, -3.602189158115248E+08, 3.085157933056663E+07,
2460616.500000000, A.D. 2024-Nov-02 00:00:00.0000, -8.029159749390098E+07, -3.614931201164840E+08, 3.136656908776912E+07,
2460623.500000000, A.D. 2024-Nov-09 00:00:00.0000, -6.852435839969800E+07, -3.624254764871337E+08, 3.185189310871418E+07,
2460630.500000000, A.D. 2024-Nov-16 00:00:00.0000, -5.669161867202994E+07, -3.630111773795373E+08, 3.230674726005135E+07,
2460637.500000000, A.D. 2024-Nov-23 00:00:00.0000, -4.480408286067623E+07, -3.632457246356569E+08, 3.273034577637616E+07,
2460644.500000000, A.D. 2024-Nov-30 00:00:00.0000, -3.287276548472948E+07, -3.631249512677937E+08, 3.312192347253767E+07,
2460651.500000000, A.D. 2024-Dec-07 00:00:00.0000, -2.090898162085175E+07, -3.626450432174019E+08, 3.348073798865661E+07,
2460658.500000000, A.D. 2024-Dec-14 00:00:00.0000, -8.924335953091988E+06, -3.618025597601542E+08, 3.380607222375217E+07,
2460665.500000000, A.D. 2024-Dec-21 00:00:00.0000, 3.069287461037842E+06, -3.605944536820570E+08, 3.409723706037585E+07,
2460672.500000000, A.D. 2024-Dec-28 00:00:00.0000, 1.505973673819122E+07, -3.590180940681131E+08, 3.435357394660477E+07,
2460679.500000000, A.D. 2025-Jan-04 00:00:00.0000, 2.703460767610791E+07, -3.570712891948388E+08, 3.457445728057815E+07,
2460686.500000000, A.D. 2025-Jan-11 00:00:00.0000, 3.898126143502463E+07, -3.547523077256727E+08, 3.475929688867107E+07,
2460693.500000000, A.D. 2025-Jan-18 00:00:00.0000, 5.088684350073723E+07, -3.520598989770846E+08, 3.490754059335814E+07,
2460700.500000000, A.D. 2025-Jan-25 00:00:00.0000, 6.273830418349348E+07, -3.489933125707744E+08, 3.501867679540008E+07,
2460707.500000000, A.D. 2025-Feb-01 00:00:00.0000, 7.452242083780715E+07, -3.455523173360770E+08, 3.509223703498667E+07,
2460714.500000000, A.D. 2025-Feb-08 00:00:00.0000, 8.622582184110491E+07, -3.417372192708682E+08, 3.512779851114774E+07,
$$EOE